GLOBALSTAR M001         
1 25162U 98008A   26004.26736398 -.00000063  00000+0  25853-3 0  9992
2 25162  52.0033 107.9559 0000702 345.2806  39.7583 12.38225143268624
GLOBALSTAR M004         
1 25163U 98008B   26003.88307846 -.00000095  00000+0  49176-4 0  9992
2 25163  51.9982 161.8691 0003481  34.5394 121.1867 12.63411959287058
GLOBALSTAR M002         
1 25164U 98008C   26004.19491549 -.00000078  00000+0 -26193-4 0  9998
2 25164  52.0017  96.2079 0002209 143.9624 216.1345 11.61514565207422
GLOBALSTAR M003         
1 25165U 98008D   26004.09434242 -.00000192  00000+0 -10977-2 0  9993
2 25165  51.9920 332.0652 0008238 340.0436 100.6654 12.12037974257584
GLOBALSTAR M014         
1 25306U 98023A   26004.24537137 -.00000063  00000+0  26235-3 0  9992
2 25306  51.9873  15.0777 0000923  12.9968  71.3754 11.65483844214612
GLOBALSTAR M006         
1 25307U 98023B   26004.21331029 -.00000103  00000+0 -54976-3 0  9991
2 25307  51.9953  75.1454 0003674 117.7741 275.3098 11.58177615240120
GLOBALSTAR M015         
1 25308U 98023C   26004.23260023 -.00000070  00000+0  74864-4 0  9990
2 25308  51.9790 182.7847 0013763  75.6688  94.9418 11.48863485217180
GLOBALSTAR M008         
1 25309U 98023D   26004.27700044 -.00000068  00000+0  21722-3 0  9998
2 25309  51.9994 335.0388 0002314 240.5684 258.2790 12.36077883262713
